[{"OBJECT_NAME":"GXIBA-1","OBJECT_ID":"1998-067YA","EPOCH":"2026-03-09T07:32:56.030496","MEAN_MOTION":15.54259962,"ECCENTRICITY":0.00110131,"INCLINATION":51.63,"RA_OF_ASC_NODE":73.4032,"ARG_OF_PERICENTER":174.4815,"MEAN_ANOMALY":185.6299,"EPHEMERIS_TYPE":0,"CLASSIFICATION_TYPE":"U","NORAD_CAT_ID":67684,"ELEMENT_SET_NO":999,"REV_AT_EPOCH":473,"BSTAR":0.0011905476,"MEAN_MOTION_DOT":0.00079693,"MEAN_MOTION_DDOT":0},{"OBJECT_NAME":"COSMOS 1743","OBJECT_ID":"1986-034A","EPOCH":"2026-03-09T10:47:12.341760","MEAN_MOTION":15.58526486,"ECCENTRICITY":0.0001656,"INCLINATION":82.5296,"RA_OF_ASC_NODE":74.083,"ARG_OF_PERICENTER":296.6457,"MEAN_ANOMALY":63.4629,"EPHEMERIS_TYPE":0,"CLASSIFICATION_TYPE":"U","NORAD_CAT_ID":16719,"ELEMENT_SET_NO":999,"REV_AT_EPOCH":18021,"BSTAR":0.00044928259,"MEAN_MOTION_DOT":0.00034437,"MEAN_MOTION_DDOT":0}]
